SatCatId,ObjectName,LaunchYear,OrbitalPeriod,LaunchMass,StatusCode,Inclination,Status,UcsData,OrbitClassEstimated,LaunchSiteCountry,Owner,UseType,Purpose,LaunchVehicleClass,TLE1,TLE2,MeanMotion,Eccentricity,OrbitClass
52349,STARLINK-3819,2022,95.44,260.0,+,53.22,Active,1,LEO,USA,USA,Commercial,Communications,Falcon,1 52349U 22045U   23266.42939013  .00002359  00000+0  16621-3 0  9993,2 52349  53.2164 271.5681 0001514  95.7815 264.3350 15.08849026 80174,15.08849026,0.0001514,LEO
52350,STARLINK-3754,2022,95.44,260.0,+,53.22,Active,1,LEO,USA,USA,Commercial,Communications,Falcon,1 52350U 22045V   23266.28219787  .00002443  00000+0  17153-3 0  9993,2 52350  53.2151 272.2289 0001529  88.8239 271.2928 15.08837820 80158,15.0883782,0.0001529,LEO
52352,STARLINK-3838,2022,95.44,260.0,+,53.22,Active,1,LEO,USA,USA,Commercial,Communications,Falcon,1 52352U 22045X   23266.33739705  .00003227  00000+0  22070-3 0  9993,2 52352  53.2159 271.9814 0001527  91.4714 268.6453 15.08845996 80161,15.08845996,0.0001527,LEO
52353,STARLINK-3807,2022,95.44,260.0,+,53.22,Active,1,LEO,USA,USA,Commercial,Communications,Falcon,1 52353U 22045Y   23266.74220182  .00000449  00000+0  46318-4 0  9998,2 52353  53.2175 270.1636 0001620  88.5308 271.5870 15.08838327 80226,15.08838327,0.000162,LEO
52354,STARLINK-3876,2022,95.44,260.0,+,53.22,Active,1,LEO,USA,USA,Commercial,Communications,Falcon,1 52354U 22045Z   23266.39259706  .00001951  00000+0  14063-3 0  9994,2 52354  53.2175 271.7356 0001651  96.1541 263.9639 15.08842086 80170,15.08842086,0.0001651,LEO
52355,STARLINK-3877,2022,95.44,260.0,+,53.22,Active,1,LEO,USA,USA,Commercial,Communications,Falcon,1 52355U 22045AA  23266.73851562  .00001881  00000+0  13621-3 0  9992,2 52355  53.2164 270.1827 0001745  89.2321 270.8871 15.08844980 80224,15.0884498,0.0001745,LEO
52356,STARLINK-3801,2022,95.44,260.0,+,53.22,Active,1,LEO,USA,USA,Commercial,Communications,Falcon,1 52356U 22045AB  23266.46251943  .00002628  00000+0  18314-3 0  9994,2 52356  53.2160 271.4511 0001620  97.1727 262.9449 15.08846448 80184,15.08846448,0.000162,LEO
52357,STARLINK-3821,2022,95.44,260.0,+,53.22,Active,1,LEO,USA,USA,Commercial,Communications,Falcon,1 52357U 22045AC  23266.39995648  .00001911  00000+0  13813-3 0  9997,2 52357  53.2165 271.7037 0001813  97.3837 262.7361 15.08846341 80176,15.08846341,0.0001813,LEO
52358,STARLINK-3837,2022,95.44,260.0,+,53.22,Active,1,LEO,USA,USA,Commercial,Communications,Falcon,1 52358U 22045AD  23266.24907236  .00003325  00000+0  22687-3 0  9998,2 52358  53.2160 272.3816 0001577  92.3341 267.7832 15.08849505 80157,15.08849505,0.0001577,LEO
52359,STARLINK-3853,2022,95.44,260.0,+,53.22,Active,1,LEO,USA,USA,Commercial,Communications,Falcon,1 52359U 22045AE  23266.72844056  .00004295  00000+0  28768-3 0  9995,2 52359  53.2151 270.2358 0001985  90.2648 269.8572 15.08855588 80226,15.08855588,0.0001985,LEO
52360,STARLINK-3824,2022,95.44,260.0,+,53.22,Active,1,LEO,USA,USA,Commercial,Communications,Falcon,1 52360U 22045AF  23266.37511499  .00001890  00000+0  13677-3 0  9991,2 52360  53.2161 261.8141 0001551  85.3897 274.7272 15.08844994 80293,15.08844994,0.0001551,LEO
52361,STARLINK-3728,2022,95.44,260.0,+,53.22,Active,1,LEO,USA,USA,Commercial,Communications,Falcon,1 52361U 22045AG  23266.25643691  .00002161  00000+0  15379-3 0  9992,2 52361  53.2155 272.3473 0001541 103.1984 256.9180 15.08844580 80153,15.0884458,0.0001541,LEO
52362,STARLINK-3848,2022,95.44,260.0,+,53.22,Active,1,LEO,USA,USA,Commercial,Communications,Falcon,1 52362U 22045AH  23266.70264169  .00000792  00000+0  67881-4 0  9996,2 52362  53.2170 260.3419 0001712  92.1883 267.9305 15.08839810 80356,15.0883981,0.0001712,LEO
52363,STARLINK-3830,2022,95.44,260.0,+,53.22,Active,1,LEO,USA,USA,Commercial,Communications,Falcon,1 52363U 22045AJ  23266.31899301  .00001000  00000+0  80882-4 0  9995,2 52363  53.2166 272.0678 0001626  96.7974 263.3203 15.08842121 80169,15.08842121,0.0001626,LEO
52364,STARLINK-3820,2022,95.44,260.0,+,53.22,Active,1,LEO,USA,USA,Commercial,Communications,Falcon,1 52364U 22045AK  23266.22422260  .00003614  00000+0  24500-3 0  9999,2 52364  53.2162 262.4009 0001705  88.3916 271.7272 15.08849824 80287,15.08849824,0.0001705,LEO
52365,STARLINK-3874,2022,95.44,260.0,+,53.22,Active,1,LEO,USA,USA,Commercial,Communications,Falcon,1 52365U 22045AL  23266.70999941  .00000277  00000+0  35520-4 0  9995,2 52365  53.2164 260.3068 0001478  88.9605 271.1557 15.08838773 80359,15.08838773,0.0001478,LEO
52366,STARLINK-3808,2022,95.44,260.0,+,53.22,Active,1,LEO,USA,USA,Commercial,Communications,Falcon,1 52366U 22045AM  23266.36039068  .00001612  00000+0  11933-3 0  9998,2 52366  53.2167 261.8816 0001623 102.7488 257.3686 15.08847653 80307,15.08847653,0.0001623,LEO
52367,STARLINK-3817,2022,95.44,260.0,+,53.22,Active,1,LEO,USA,USA,Commercial,Communications,Falcon,1 52367U 22045AN  23266.69896134  .00000458  00000+0  46868-4 0  9993,2 52367  53.2189 260.3605 0001727  93.9138 266.2052 15.08836054 80354,15.08836054,0.0001727,LEO
52368,STARLINK-3834,2022,95.44,260.0,+,53.22,Active,1,LEO,USA,USA,Commercial,Communications,Falcon,1 52368U 22045AP  23266.28311236  .00002780  00000+0  19264-3 0  9993,2 52368  53.2161 262.2236 0001535  86.9269 273.1899 15.08848809 80289,15.08848809,0.0001535,LEO
52369,STARLINK-3841,2022,95.44,260.0,+,53.22,Active,1,LEO,USA,USA,Commercial,Communications,Falcon,1 52369U 22045AQ  23266.36407175  .00001848  00000+0  13414-3 0  9996,2 52369  53.2164 261.8612 0001572  92.3735 267.7437 15.08846474 80302,15.08846474,0.0001572,LEO
52370,STARLINK-3827,2022,95.44,260.0,+,53.22,Active,1,LEO,USA,USA,Commercial,Communications,Falcon,1 52370U 22045AR  23266.68889296 -.00000666  00000+0 -23800-4 0  9991,2 52370  53.2155 260.4149 0001352 109.1761 250.9378 15.08826725 80356,15.08826725,0.0001352,LEO
52371,STARLINK-3798,2022,95.44,260.0,+,53.22,Active,1,LEO,USA,USA,Commercial,Communications,Falcon,1 52371U 22045AS  23266.28774782  .00000875  00000+0  73020-4 0  9990,2 52371  53.2175 262.2147 0001653  93.9347 266.1834 15.08848542 80280,15.08848542,0.0001653,LEO
52372,STARLINK-3796,2022,95.44,260.0,+,53.22,Active,1,LEO,USA,USA,Commercial,Communications,Falcon,1 52372U 22045AT  23266.27943447  .00002282  00000+0  16137-3 0  9995,2 52372  53.2166 262.2376 0001606  92.5931 267.5245 15.08846440 80283,15.0884644,0.0001606,LEO
52373,STARLINK-3550,2022,95.44,260.0,+,53.22,Active,1,LEO,USA,USA,Commercial,Communications,Falcon,1 52373U 22045AU  23266.26839226  .00006387  00000+0  41889-3 0  9996,2 52373  53.2158 262.2889 0001575  90.8491 269.2682 15.08854149 80291,15.08854149,0.0001575,LEO
52374,STARLINK-3762,2022,95.44,260.0,+,53.22,Active,1,LEO,USA,USA,Commercial,Communications,Falcon,1 52374U 22045AV  23266.27207670  .00002771  00000+0  19213-3 0  9999,2 52374  53.2162 262.2716 0001494  89.8230 270.2933 15.08843655 80296,15.08843655,0.0001494,LEO
52375,STARLINK-3785,2022,95.44,260.0,+,53.22,Active,1,LEO,USA,USA,Commercial,Communications,Falcon,1 52375U 22045AW  23266.27575343  .00002735  00000+0  18980-3 0  9995,2 52375  53.2152 262.2554 0001700  91.6416 268.4770 15.08848217 80290,15.08848217,0.00017,LEO
52376,STARLINK-3767,2022,95.44,260.0,+,53.22,Active,1,LEO,USA,USA,Commercial,Communications,Falcon,1 52376U 22045AX  23266.26471307  .00003247  00000+0  22195-3 0  9992,2 52376  53.2157 262.3068 0001734  90.6418 269.4773 15.08849703 80290,15.08849703,0.0001734,LEO
52377,STARLINK-3805,2022,95.44,260.0,+,53.22,Active,1,LEO,USA,USA,Commercial,Communications,Falcon,1 52377U 22045AY  23266.28682051  .00003620  00000+0  24535-3 0  9990,2 52377  53.2152 262.4300 0001391  96.3142 263.8009 15.08848498 80281,15.08848498,0.0001391,LEO
52378,STARLINK-3806,2022,95.44,260.0,+,53.22,Active,1,LEO,USA,USA,Commercial,Communications,Falcon,1 52378U 22045AZ  23266.72103714  .00000089  00000+0  23684-4 0  9995,2 52378  53.2154 260.2583 0001488  98.8269 261.2892 15.08838779 80369,15.08838779,0.0001488,LEO
52379,STARLINK-3800,2022,95.44,260.0,+,53.21,Active,1,LEO,USA,USA,Commercial,Communications,Falcon,1 52379U 22045BA  23266.26103467  .00001115  00000+0  88155-4 0  9995,2 52379  53.2145 262.3269 0001702  87.8584 272.2603 15.08846382 80294,15.08846382,0.0001702,LEO
52380,STARLINK-3793,2022,95.44,260.0,+,53.22,Active,1,LEO,USA,USA,Commercial,Communications,Falcon,1 52380U 22045BB  23266.37235556  .00002874  00000+0  19851-3 0  9993,2 52380  53.2155 251.8516 0001785  95.1570 264.9626 15.08850694 80444,15.08850694,0.0001785,LEO
52381,STARLINK-3803,2022,95.44,260.0,+,53.21,Active,1,LEO,USA,USA,Commercial,Communications,Falcon,1 52381U 22045BC  23266.71735759 -.00000318  00000+0 -18600-5 0  9998,2 52381  53.2144 260.2756 0001619  92.6952 267.4225 15.08837875 80365,15.08837875,0.0001619,LEO
52382,STARLINK-3799,2022,95.44,260.0,+,53.22,Active,1,LEO,USA,USA,Commercial,Communications,Falcon,1 52382U 22045BD  23266.24999627  .00003935  00000+0  26512-3 0  9998,2 52382  53.2150 262.3848 0001524  84.8761 275.2405 15.08849532 80296,15.08849532,0.0001524,LEO
52383,STARLINK-3811,2022,95.44,260.0,+,53.22,Active,1,LEO,USA,USA,Commercial,Communications,Falcon,1 52383U 22045BE  23266.33924032  .00003539  00000+0  24027-3 0  9996,2 52383  53.2166 252.0047 0001647 105.5008 254.6166 15.08847903 80444,15.08847903,0.0001647,LEO
52388,JILIN-1 GAOFEN 4A,2022,95.21,43.0,+,97.52,Active,1,LEO,Sea Launch Platform,China,Commercial,Earth Observation,Long March,1 52388U 22046A   23266.73164240  .00013043  00000+0  74967-3 0  9992,2 52388  97.5190 351.4439 0018391 317.7680  42.2133 15.12476419 77225,15.12476419,0.0018391,LEO
52389,JILIN-1 GAOFEN 3D04,2022,95.07,43.0,+,97.52,Active,1,LEO,Sea Launch Platform,China,Commercial,Earth Observation,Long March,1 52389U 22046B   23266.75206949  .00012346  00000+0  66885-3 0  9993,2 52389  97.5203 352.9520 0005339 354.4842   5.6330 15.14738894 77316,15.14738894,0.0005339,LEO
